[{"OBJECT_NAME":"ONEWEB-0532","OBJECT_ID":"2023-004A","EPOCH":"2026-03-09T20:39:25.580736","MEAN_MOTION":13.17648914,"ECCENTRICITY":0.0001921,"INCLINATION":87.9162,"RA_OF_ASC_NODE":25.5867,"ARG_OF_PERICENTER":68.5799,"MEAN_ANOMALY":291.5537,"EPHEMERIS_TYPE":0,"CLASSIFICATION_TYPE":"U","NORAD_CAT_ID":55140,"ELEMENT_SET_NO":999,"REV_AT_EPOCH":15450,"BSTAR":-0.00011889847,"MEAN_MOTION_DOT":-3.3e-7,"MEAN_MOTION_DDOT":0},{"OBJECT_NAME":"DELTA 1 DEB","OBJECT_ID":"1975-052MN","EPOCH":"2026-03-08T16:41:22.952256","MEAN_MOTION":13.30821048,"ECCENTRICITY":0.00680262,"INCLINATION":99.765,"RA_OF_ASC_NODE":217.5591,"ARG_OF_PERICENTER":234.866,"MEAN_ANOMALY":140.1754,"EPHEMERIS_TYPE":0,"CLASSIFICATION_TYPE":"U","NORAD_CAT_ID":42653,"ELEMENT_SET_NO":999,"REV_AT_EPOCH":59713,"BSTAR":0.00012393727,"MEAN_MOTION_DOT":1.7e-7,"MEAN_MOTION_DDOT":0}]
